norad_id,name,regime,epoch,line1,line2,inclination,eccentricity,mean_motion,raan,arg_pericenter,mean_anomaly
44333,AT&T T-16,GEO,21344.67460437,1 44333U 19034A   21344.67460437 -.00000115  00000-0  00000-0 0    17\,2 44333   0.0151 314.2607 0001228 211.5252  55.8304  1.00271459  9092,0.0151,0.0001228,1.00271459,314.2607,211.5252,55.8304
44333,AT&T T-16,GEO,21344.88985925,1 44333U 19034A   21344.88985925 -.00000114  00000-0  00000+0 0  3060\,2 44333   0.0160 318.1973 0001282 207.8387 133.2823  1.00270372  9087,0.016,0.0001282,1.00270372,318.1973,207.8387,133.2823
44333,AT&T T-16,GEO,21345.03342061,1 44333U 19034A   21345.03342061 -.00000114  00000-0  00000+0 0  3077\,2 44333   0.0149 316.4385 0001120 205.3002 189.4059  1.00272621  9094,0.0149,0.000112,1.00272621,316.4385,205.3002,189.4059
44333,AT&T T-16,GEO,21345.46406973,1 44333U 19034A   21345.46406973 -.00000113  00000-0  00000-0 0    18\,2 44333   0.0149 315.1999 0001062 209.3722 342.0351  1.00274381  9108,0.0149,0.0001062,1.00274381,315.1999,209.3722,342.0351
44333,AT&T T-16,GEO,21345.82341260,1 44333U 19034A   21345.82341260 -.00000112  00000-0  00000+0 0  3083\,2 44333   0.0121 303.9938 0001446 225.3645 106.9655  1.00269254  9101,0.0121,0.0001446,1.00269254,303.9938,225.3645,106.9655
44333,AT&T T-16,GEO,21345.89466406,1 44333U 19034A   21345.89466406 -.00000111  00000-0  00000-0 0    10\,2 44333   0.0120 304.1641 0001437 225.2079 132.6719  1.00269317  9101,0.012,0.0001437,1.00269317,304.1641,225.2079,132.6719
44333,AT&T T-16,GEO,21346.17638997,1 44333U 19034A   21346.17638997 -.00000111  00000-0  00000+0 0  3098\,2 44333   0.0134 302.0950 0000992 215.6044 246.0477  1.00270543  9100,0.0134,9.92e-05,1.00270543,302.095,215.6044,246.0477
44333,AT&T T-16,GEO,21346.46385424,1 44333U 19034A   21346.46385424 -.00000109  00000-0  00000-0 0    11\,2 44333   0.0131 302.9439 0001026 215.8883 348.6855  1.00271190  9119,0.0131,0.0001026,1.0027119,302.9439,215.8883,348.6855
44333,AT&T T-16,GEO,21346.89952623,1 44333U 19034A   21346.89952623 -.00000108  00000-0  00000-0 0    18\,2 44333   0.0149 301.3244 0001470 228.6939 134.7726  1.00269964  9119,0.0149,0.000147,1.00269964,301.3244,228.6939,134.7726
44333,AT&T T-16,GEO,21347.15812010,1 44333U 19034A   21347.15812010 -.00000108  00000-0  00000+0 0  3105\,2 44333   0.0147 302.3888 0001228 221.9975 233.7574  1.00273142  9113,0.0147,0.0001228,1.00273142,302.3888,221.9975,233.7574
44333,AT&T T-16,GEO,21347.50714656,1 44333U 19034A   21347.50714656 -.00000105  00000-0  00000-0 0    16\,2 44333   0.0156 301.2782 0000967 218.6264   4.2288  1.00269347  9123,0.0156,9.67e-05,1.00269347,301.2782,218.6264,4.2288
44333,AT&T T-16,GEO,21347.83246547,1 44333U 19034A   21347.83246547 -.00000104  00000-0  00000-0 0    10\,2 44333   0.0150 302.5827 0000937 218.9869 119.9961  1.00269417  9122,0.015,9.37e-05,1.00269417,302.5827,218.9869,119.9961
44333,AT&T T-16,GEO,21348.55025693,1 44333U 19034A   21348.55025693 -.00000102  00000-0  00000-0 0    15\,2 44333   0.0127 306.5603 0000868 215.8487  18.2633  1.00269438  9138,0.0127,8.68e-05,1.00269438,306.5603,215.8487,18.2633
44333,AT&T T-16,GEO,21348.62195039,1 44333U 19034A   21348.62195039 -.00000102  00000-0  00000+0 0  3129\,2 44333   0.0125 306.7661 0000867 215.9986  43.7873  1.00269452  9120,0.0125,8.67e-05,1.00269452,306.7661,215.9986,43.7873
44333,AT&T T-16,GEO,21348.83737046,1 44333U 19034A   21348.83737046 -.00000101  00000-0  00000-0 0    17\,2 44333   0.0122 307.5027 0000847 216.4044 120.4065  1.00269465  9132,0.0122,8.47e-05,1.00269465,307.5027,216.4044,120.4065
44333,AT&T T-16,GEO,21349.41156067,1 44333U 19034A   21349.41156067 -.00000099  00000-0  00000+0 0  3131\,2 44333   0.0153 322.1280 0000803 202.5077 326.9478  1.00269472  9133,0.0153,8.03e-05,1.00269472,322.128,202.5077,326.9478
44333,AT&T T-16,GEO,21350.34888480,1 44333U 19034A   21350.34888480 -.00000098  00000-0  00000+0 0  3146\,2 44333   0.0179 329.9536 0000816 208.5757 291.4119  1.00273948  9147,0.0179,8.16e-05,1.00273948,329.9536,208.5757,291.4119
44333,AT&T T-16,GEO,21351.45721465,1 44333U 19034A   21351.45721465 -.00000096  00000-0  00000+0 0  3157\,2 44333   0.0138 307.2784 0001259 239.1324 323.6342  1.00274850  9158,0.0138,0.0001259,1.0027485,307.2784,239.1324,323.6342
44333,AT&T T-16,GEO,21351.67179410,1 44333U 19034A   21351.67179410 -.00000096  00000-0  00000-0 0    11\,2 44333   0.0133 309.7533 0000896 228.1486  49.6047  1.00278499  9166,0.0133,8.96e-05,1.00278499,309.7533,228.1486,49.6047
44333,AT&T T-16,GEO,21352.45941674,1 44333U 19034A   21352.45941674 -.00000095  00000-0  00000-0 0    16\,2 44333   0.0145 307.5109 0001103 232.8411 331.4770  1.00274402  9172,0.0145,0.0001103,1.00274402,307.5109,232.8411,331.477
44333,AT&T T-16,GEO,21352.66726486,1 44333U 19034A   21352.66726486 -.00000094  00000-0  00000+0 0  3180\,2 44333   0.0166 305.4009 0001575 232.0625  49.3944  1.00267355  9169,0.0166,0.0001575,1.00267355,305.4009,232.0625,49.3944
44333,AT&T T-16,GEO,21352.85661792,1 44333U 19034A   21352.85661792 -.00000094  00000-0  00000-0 0    19\,2 44333   0.0164 306.4501 0001442 232.1553 116.6057  1.00269484  9178,0.0164,0.0001442,1.00269484,306.4501,232.1553,116.6057
44333,AT&T T-16,GEO,21353.14372086,1 44333U 19034A   21353.14372086 -.00000095  00000-0  00000+0 0  3199\,2 44333   0.0179 304.0443 0000859 228.7632 226.0461  1.00268114  9177,0.0179,8.59e-05,1.00268114,304.0443,228.7632,226.0461
44333,AT&T T-16,GEO,21353.43075639,1 44333U 19034A   21353.43075639 -.00000095  00000-0  00000-0 0    14\,2 44333   0.0177 304.1839 0001111 232.3699 325.9180  1.00272733  9181,0.0177,0.0001111,1.00272733,304.1839,232.3699,325.918
44333,AT&T T-16,GEO,21353.64609847,1 44333U 19034A   21353.64609847 -.00000094  00000-0  00000-0 0    10\,2 44333   0.0200 301.4301 0001744 236.5281  42.2492  1.00265859  9183,0.02,0.0001744,1.00265859,301.4301,236.5281,42.2492
44333,AT&T T-16,GEO,21354.07676994,1 44333U 19034A   21354.07676994 -.00000094  00000-0  00000+0 0  3220\,2 44333   0.0212 299.3381 0000702 237.3707 198.9657  1.00262911  9182,0.0212,7.02e-05,1.00262911,299.3381,237.3707,198.9657
44333,AT&T T-16,GEO,21354.48041626,1 44333U 19034A   21354.48041626 -.00000095  00000-0  00000+0 0  3235\,2 44333   0.0207 302.2023 0000993 229.7726 349.4082  1.00268972  9189,0.0207,9.93e-05,1.00268972,302.2023,229.7726,349.4082
44333,AT&T T-16,GEO,21354.58213594,1 44333U 19034A   21354.58213594 -.00000095  00000-0  00000-0 0    15\,2 44333   0.0201 301.9014 0000974 229.6522  26.5477  1.00268790  9191,0.0201,9.74e-05,1.0026879,301.9014,229.6522,26.5477
44333,AT&T T-16,GEO,21354.64228174,1 44333U 19034A   21354.64228174 -.00000095  00000-0  00000-0 0    12\,2 44333   0.0200 301.8922 0000975 230.5051  47.4153  1.00268982  9192,0.02,9.75e-05,1.00268982,301.8922,230.5051,47.4153
44333,AT&T T-16,GEO,21355.51203948,1 44333U 19034A   21355.51203948 -.00000095  00000-0  00000-0 0    11\,2 44333   0.0176 305.9467 0000920 225.6009   2.2261  1.00268869  9206,0.0176,9.2e-05,1.00268869,305.9467,225.6009,2.2261
44333,AT&T T-16,GEO,21355.65557426,1 44333U 19034A   21355.65557426 -.00000096  00000-0  00000+0 0  3247\,2 44333   0.0174 306.0600 0000912 225.0824  54.4438  1.00268849  9196,0.0174,9.12e-05,1.00268849,306.06,225.0824,54.4438
44333,AT&T T-16,GEO,21355.87088578,1 44333U 19034A   21355.87088578 -.00000096  00000-0  00000-0 0    11\,2 44333   0.0170 307.0653 0000893 222.8806 133.3621  1.00268809  9203,0.017,8.93e-05,1.00268809,307.0653,222.8806,133.3621
44333,AT&T T-16,GEO,21356.51686198,1 44333U 19034A   21356.51686198 -.00000096  00000-0  00000-0 0    15\,2 44333   0.0147 310.4762 0000835 218.0207   7.9923  1.00268720  9218,0.0147,8.35e-05,1.0026872,310.4762,218.0207,7.9923
44333,AT&T T-16,GEO,21356.66114545,1 44333U 19034A   21356.66114545 -.00000096  00000-0  00000-0 0    13\,2 44333   0.0143 310.9289 0000894 219.1523  58.4910  1.00268742  9212,0.0143,8.94e-05,1.00268742,310.9289,219.1523,58.491
44333,AT&T T-16,GEO,21357.18419581,1 44333U 19034A   21357.18419581 -.00000097  00000-0  00000+0 0  3269\,2 44333   0.0125 313.4428 0000832 220.1313 243.8106  1.00273221  9211,0.0125,8.32e-05,1.00273221,313.4428,220.1313,243.8106
44333,AT&T T-16,GEO,21357.48512476,1 44333U 19034A   21357.48512476 -.00000098  00000-0  00000+0 0  3271\,2 44333   0.0155 307.3921 0001118 240.4014 338.2300  1.00276676  9217,0.0155,0.0001118,1.00276676,307.3921,240.4014,338.23
44333,AT&T T-16,GEO,21357.58804391,1 44333U 19034A   21357.58804391 -.00000097  00000-0  00000-0 0    11\,2 44333   0.0153 307.4886 0001339 228.0932  27.5912  1.00270048  9227,0.0153,0.0001339,1.00270048,307.4886,228.0932,27.5912
44333,AT&T T-16,GEO,21357.66519911,1 44333U 19034A   21357.66519911 -.00000096  00000-0  00000-0 0    10\,2 44333   0.0154 307.8281 0001401 226.7802  56.4154  1.00268862  9222,0.0154,0.0001401,1.00268862,307.8281,226.7802,56.4154
44333,AT&T T-16,GEO,21358.04602122,1 44333U 19034A   21358.04602122 -.00000095  00000-0  00000+0 0  3291\,2 44333   0.0177 301.1006 0000617 303.9395 123.4515  1.00257822  9222,0.0177,6.17e-05,1.00257822,301.1006,303.9395,123.4515
44333,AT&T T-16,GEO,21358.50949017,1 44333U 19034A   21358.50949017 -.00000100  00000-0  00000+0 0  3308\,2 44333   0.0204 299.2983 0000633 285.7963 310.7228  1.00288715  9227,0.0204,6.33e-05,1.00288715,299.2983,285.7963,310.7228
44333,AT&T T-16,GEO,21358.61156882,1 44333U 19034A   21358.61156882 -.00000097  00000-0  00000-0 0    11\,2 44333   0.0204 299.2163 0001094 236.6818  36.7636  1.00273166  9236,0.0204,0.0001094,1.00273166,299.2163,236.6818,36.7636
44333,AT&T T-16,GEO,21358.85902744,1 44333U 19034A   21358.85902744 -.00000097  00000-0  00000-0 0    13\,2 44333   0.0199 300.2103 0001120 231.0257 130.7544  1.00272413  9239,0.0199,0.000112,1.00272413,300.2103,231.0257,130.7544
44333,AT&T T-16,GEO,21359.02885094,1 44333U 19034A   21359.02885094 -.00000094  00000-0  00000+0 0  3335\,2 44333   0.0223 293.5374 0000675 332.5426  97.2058  1.00252829  9236,0.0223,6.75e-05,1.00252829,293.5374,332.5426,97.2058
